FENGYUN 1C DEB          
1 37438U 99025EHG 26190.91364562  .00000625  00000+0  33751-3 0  9998
2 37438  98.7179 230.6196 0027867 347.4267  12.6209 14.16009462630954
FENGYUN 1C DEB          
1 37441U 99025EHK 26189.75632543  .00000676  00000+0  10057-2 0  9998
2 37441  99.1405  13.9953 0506310 278.6443  75.7653 13.14623749849057
FENGYUN 1C DEB          
1 37444U 99025EHN 26200.51637784  .00001092  00000+0  20666-3 0  9992
2 37444  99.0770 302.6986 0240166  54.8419 307.5018 14.49889143683192
FENGYUN 1C DEB          
1 37448U 99025EHS 26197.95717089  .00001456  00000+0  87051-3 0  9991
2 37448  99.3052 267.2354 0304197 197.5677 161.4774 13.88111210653742
FENGYUN 1C DEB          
1 37453U 99025EHX 26187.48852645  .00003522  00000+0  25980-2 0  9990
2 37453  97.6380  86.5956 0364723  41.5170 321.3081 13.68612171924389
FENGYUN 1C DEB          
1 37457U 99025EJB 26195.01309304  .00002466  00000+0  10670-2 0  9997
2 37457  99.0926 275.3995 0063258 182.5954 177.4904 14.24240614631056
FENGYUN 1C DEB          
1 37460U 99025EJE 26200.46297987  .00002331  00000+0  59008-3 0  9990
2 37460  98.3900  20.1533 0051836 344.3279  15.6309 14.51068831856583
FENGYUN 1C DEB          
1 37461U 99025EJF 26190.34576444  .00000693  00000+0  12984-2 0  9994
2 37461  99.8624  58.7929 0656815 229.5275 124.6773 12.79680217547025
FENGYUN 1C DEB          
1 37464U 99025EJJ 26195.17438573  .00001360  00000+0  12167-2 0  9998
2 37464 102.7076 182.2660 0453621   9.6783 351.2727 13.48474560637979
FENGYUN 1C DEB          
1 37474U 99025EJU 26197.89786086  .00003712  00000+0  44921-3 0  9992
2 37474  99.1442  77.2132 0123064 180.3450 179.7693 14.79160692655671
FENGYUN 1C DEB          
1 37476U 99025EJW 26200.73490684  .00000459  00000+0  12703-2 0  9995
2 37476  98.9458 161.0072 1069969 159.9112 204.7610 11.91478172700511
FENGYUN 1C DEB          
1 37477U 99025EJX 26199.46236708  .00000609  00000+0  30294-3 0  9991
2 37477  98.6052 203.1876 0036377 193.8702 166.1479 14.20290592850048
FENGYUN 1C DEB          
1 37478U 99025EJY 26199.64272796  .00001142  00000+0  18529-2 0  9998
2 37478  99.6561 164.8990 0539950 176.8309 183.6452 13.03654472594001
FENGYUN 1C DEB          
1 37589U 99025EKH 26198.48220926  .00002120  00000+0  11426-2 0  9996
2 37589  99.0702 107.6791 0120555  16.7482 343.7616 14.10202197856374
FENGYUN 1C DEB          
1 37591U 99025EKK 26200.07473442  .00010505  00000+0  20694-2 0  9994
2 37591  98.4054 153.5599 0068316  41.1095  19.8487 14.61223561696456
FENGYUN 1C DEB          
1 37593U 99025EKM 26200.54877591  .00001075  00000+0  32902-3 0  9999
2 37593  99.0006  93.2603 0145583 192.9424 290.0210 14.38117054892640
FENGYUN 1C DEB          
1 37594U 99025EKN 26200.34419488  .00000115  00000+0  84377-4 0  9993
2 37594  98.7123 228.4919 0085884  10.1716 350.1169 14.11315282808452
FENGYUN 1C DEB          
1 37595U 99025EKP 26186.61392223  .00041185  00000+0  49716-2 0  9992
2 37595  99.0437  65.7800 0023264  80.4071 310.0565 14.83428677656317
FENGYUN 1C DEB          
1 37600U 99025EKU 26199.24284821  .00003033  00000+0  16521-2 0  9994
2 37600  98.9302 350.7676 0355373 180.9584 179.0933 13.85261125914969
FENGYUN 1C DEB          
1 37682U 99025EKX 26200.43304463  .00000885  00000+0  83297-3 0  9990
2 37682  98.5769 189.1542 0226599 133.9191 228.0912 13.72791468654335
FENGYUN 1C DEB          
1 37683U 99025EKY 26189.46592013  .00000155  00000+0  14967-3 0  9998
2 37683  97.9903  69.6155 0580553 315.8550 230.9529 13.32837373320062
FENGYUN 1C DEB          
1 37686U 99025ELB 26193.23503653  .00000226  00000+0  33620-3 0  9999
2 37686  99.0155 192.5167 0393652 237.3521 182.5753 13.35536662634502
FENGYUN 1C DEB          
1 37687U 99025ELC 26196.28455128  .00003059  00000+0  16833-2 0  9994
2 37687  98.1863 210.3004 0334219 125.3734 301.7693 13.87454797862274
FENGYUN 1C DEB          
1 37689U 99025ELE 26193.95538164  .00004094  00000+0  10197-2 0  9996
2 37689  98.9109 252.2969 0016902 321.4946  38.5040 14.52185982608899
FENGYUN 1C DEB          
1 37691U 99025ELG 26198.49550360  .00004613  00000+0  53484-3 0  9999
2 37691  98.3598 110.1851 0253026 193.9812 165.4297 14.65590190888017
FENGYUN 1C DEB          
1 37693U 99025ELJ 26200.46669653  .00000416  00000+0  25863-3 0  9995
2 37693  98.6997 197.5941 0071028 175.7458 337.3669 14.08929519652287
FENGYUN 1C DEB          
1 37694U 99025ELK 26193.36215456  .00001933  00000+0  86256-3 0  9992
2 37694  98.1861 249.5996 0146510 195.4346 226.5772 14.18212056547026
FENGYUN 1C DEB          
1 37695U 99025ELL 26199.85495549  .00000497  00000+0  31161-3 0  9995
2 37695  98.1862 215.3080 0461666  36.9503  81.9592 13.65674488922289
FENGYUN 1C DEB          
1 37704U 99025ELV 26196.96662850  .00000564  00000+0  55011-3 0  9991
2 37704  98.3301   6.6463 0238354 320.9519 193.9634 13.71032259653132
FENGYUN 1C DEB          
1 37707U 99025ELY 26192.98365948  .00001466  00000+0  29506-3 0  9992
2 37707 100.2046 249.4278 0141788 129.8374 354.7508 14.57564333886429
FENGYUN 1C DEB          
1 37712U 99025EMD 26195.23730618  .00000503  00000+0  17877-3 0  9998
2 37712  98.8463 344.7585 0079975  83.3956  38.3390 14.37041303670260
FENGYUN 1C DEB          
1 37714U 99025EMF 26174.80490259  .00003989  00000+0  14201-2 0  9992
2 37714  98.9004 296.7588 0047024 233.3608 126.3247 14.34249031602757
FENGYUN 1C DEB          
1 37715U 99025EMG 26200.81528141  .00000187  00000+0  16010-3 0  9994
2 37715  98.9540 207.4537 0112242 229.8933 308.6805 13.95724661608598
FENGYUN 1C DEB          
1 37717U 99025EMJ 26196.20868380  .00020594  00000+0  12463-2 0  9996
2 37717  98.7433 184.0737 0045015 120.1774 303.9298 15.09807119926189
FENGYUN 1C DEB          
1 37719U 99025EML 26199.39934294  .00001663  00000+0  36797-3 0  9992
2 37719  99.4810 260.5650 0042328 332.2906  89.0359 14.58332531 34093
FENGYUN 1C DEB          
1 37900U 99025EMZ 26200.17796913  .00000927  00000+0  51169-3 0  9999
2 37900 102.3046 358.0557 0208401  57.6224 304.4914 14.04876144628809
FENGYUN 1C DEB          
1 37902U 99025ENB 26189.99479376  .00001062  00000+0  11810-2 0  9997
2 37902  98.6767  29.9895 0319348 128.8442 234.1664 13.53420784657938
FENGYUN 1C DEB          
1 37906U 99025ENF 26197.38803374  .00000302  00000+0  29753-3 0  9994
2 37906  99.5767 246.4804 0163342 181.0424 200.2517 13.81050934624325
FENGYUN 1C DEB          
1 37907U 99025ENG 26193.15972734  .00001973  00000+0  83921-3 0  9995
2 37907  99.0865 318.3515 0055231 295.8637  63.6852 14.25643239862833
FENGYUN 1C DEB          
1 37908U 99025ENH 26182.36063533  .00001151  00000+0  39200-3 0  9994
2 37908  99.1282 231.5833 0072194 291.7378  67.6133 14.37170085669424
FENGYUN 1C DEB          
1 37912U 99025ENM 26197.87853794  .00001632  00000+0  86581-3 0  9995
2 37912  99.2330 178.0235 0087555 173.3771 186.8580 14.13123727803395
FENGYUN 1C DEB          
1 37914U 99025ENP 26196.23738745  .00000920  00000+0  47017-3 0  9994
2 37914  99.2107 201.5826 0070759 108.6926 252.1945 14.16938215652256
FENGYUN 1C DEB          
1 37918U 99025ENT 26191.36710901  .00000949  00000+0  34278-3 0  9997
2 37918  99.0489 155.5548 0056480  31.3786 329.0747 14.35147564 65488
FENGYUN 1C DEB          
1 37919U 99025ENU 26199.13489047  .00000397  00000+0  17941-3 0  9990
2 37919  99.0760 150.0028 0049527 107.7938 252.8654 14.27235044680097
FENGYUN 1C DEB          
1 37921U 99025ENW 26197.36117538 -.00000090  00000+0 -33410-4 0  9991
2 37921  98.9956 238.4397 0082647 227.0859 132.3347 13.95272849661541
FENGYUN 1C DEB          
1 37925U 99025EPA 26192.95457059  .00006010  00000+0  69316-3 0  9999
2 37925  99.0675  95.5563 0052427  37.6915 322.7951 14.85122820688136
FENGYUN 1C DEB          
1 37926U 99025EPB 26199.98500380  .00001320  00000+0  56936-3 0  9999
2 37926  98.7081 266.5881 0050018 309.0714 176.6153 14.25549448773783
FENGYUN 1C DEB          
1 37927U 99025EPC 26199.30817975  .00010568  00000+0  12727-2 0  9990
2 37927  98.8152   8.4025 0004001 292.0484  68.0302 14.84085431683314
FENGYUN 1C DEB          
1 37928U 99025EPD 26199.87978679  .00000623  00000+0  21547-3 0  9994
2 37928  98.8918  87.2086 0072495 109.1291 251.7762 14.37855395843268
FENGYUN 1C DEB          
1 38116U 99025EPM 26199.33740919  .00000277  00000+0  15446-3 0  9995
2 38116  98.6893 238.4663 0069994 242.0531 177.9485 14.17436946675677
FENGYUN 1C DEB          
1 38119U 99025EPQ 26198.97234418  .00003336  00000+0  12861-2 0  9995
2 38119  98.5880 270.0653 0216262 324.8129  33.8925 14.18909940570864
FENGYUN 1C DEB          
1 38121U 99025EPS 26191.25727487  .00001157  00000+0  43786-3 0  9995
2 38121  99.1381 355.2133 0202752 248.7038 109.2385 14.22681680868985
FENGYUN 1C DEB          
1 38122U 99025EPT 26193.22693242  .00000558  00000+0  13374-3 0  9990
2 38122  98.3188 195.9206 0223223 236.4090 121.5617 14.43653121707899
FENGYUN 1C DEB          
1 38124U 99025EPV 26199.50547635  .00000139  00000+0  20490-3 0  9995
2 38124  97.8210 108.2402 0357387 101.9831 262.1594 13.41031102575002
FENGYUN 1C DEB          
1 38130U 99025EQB 26195.06899782  .00000723  00000+0  64791-3 0  9993
2 38130  98.5915 231.7665 0205458  11.7724 348.8129 13.78039890722206
FENGYUN 1C DEB          
1 38135U 99025EQG 26178.43367549  .00001088  00000+0  37085-3 0  9992
2 38135  98.6340 237.6411 0220596 217.4747 141.0880 14.25800255638430
FENGYUN 1C DEB          
1 38137U 99025EQJ 26193.94167312  .00000005  00000+0  28892-4 0  9998
2 38137  98.8376 236.9390 0045633 191.8581 168.1517 14.06351263666919
FENGYUN 1C DEB          
1 38143U 99025EQQ 26186.39907448  .00000913  00000+0  58352-3 0  9999
2 38143  99.0023 246.0209 0055198  14.4479 345.8251 14.05288986631575
FENGYUN 1C DEB          
1 38144U 99025EQR 26174.30416425  .00000678  00000+0  73257-3 0  9997
2 38144  98.9812 347.8679 0290144  53.8418 308.9198 13.59515004636536
FENGYUN 1C DEB          
1 38146U 99025EQT 26199.10608139  .00003616  00000+0  56497-3 0  9991
2 38146  99.4839 315.8822 0195871 169.3065   6.0617 14.61544633350528
